{"type":"FeatureCollection","features":[{"type":"Feature","properties":{"nombre":"Cusco"},"geometry":{"type":"Polygon","coordinates":[[[-72.47177123201166,-14.661398857286095],[-72.46169948200213,-14.605869607234386],[-72.50291023204115,-14.551661982183989],[-72.42746098196976,-14.479023482116217],[-72.39308198193714,-14.481849607118782],[-72.35762535690353,-14.435963857076006],[-72.31719923186513,-14.440689482080328],[-72.24950523180073,-14.40292623204499],[-72.23951560679126,-14.348472356994273],[-72.18710685674132,-14.313223606961294],[-72.0814882316405,-14.202302731857687],[-72.09519535665368,-14.173734356831133],[-72.05666985661685,-14.12881060678919],[-72.06790235662766,-14.076542981740534],[-72.0516738566122,-14.012386731680762],[-72.05573123161614,-13.930123731604203],[-72.07782623163732,-13.906728481582482],[-72.13533210669235,-13.783064731467512],[-72.23092673178347,-13.705277106395355],[-72.29916585684835,-13.704445356394737],[-72.40174810694565,-13.659505856353073],[-72.42139785696428,-13.606079731303355],[-72.56304210709817,-13.551416231252636],[-72.63687585716781,-13.542142481244067],[-72.65676810718655,-13.513354981217296],[-72.74544885727006,-13.48289535618898],[-72.79341323231516,-13.426124481136167],[-72.88630810740239,-13.415865356126659],[-72.8940861074097,-13.390126606102687],[-72.97146198248227,-13.390228481102813],[-73.0151257325232,-13.42666885613675],[-73.10338123260587,-13.448589231157188],[-73.21192923270742,-13.419101856129755],[-73.28735385777792,-13.371942981085844],[-73.34836285783493,-13.298240606017213],[-73.42190960790361,-13.132394605862771],[-73.44883935792875,-13.107873605839952],[-73.47796685795595,-13.032258730769522],[-73.52166198299673,-12.990687730730805],[-73.52367648299861,-12.899478105645887],[-73.59080935806122,-12.844288605594501],[-73.62566723309376,-12.76499248052065],[-73.72536698318672,-12.640693855404892],[-73.7482899832081,-12.657660230420674],[-73.80117298325739,-12.613024230379144],[-73.82679898328126,-12.531158980302894],[-73.88679248333717,-12.40539698018576],[-73.96585898341087,-12.336451355121568],[-73.98045160842446,-12.242588355034144],[-73.92383685837173,-12.224749230017514],[-73.84324998329662,-12.239429980031197],[-73.80189398325805,-12.22029710501337],[-73.73694073319751,-12.266786980056674],[-73.70781423317035,-12.267907230057714],[-73.63715048310446,-12.378367980160583],[-73.59046535806092,-12.376944230159253],[-73.57432635804585,-12.276842355066027],[-73.46964848294819,-12.219966480013085],[-73.44606060792616,-12.160289104957476],[-73.36188735784756,-12.135964729934836],[-73.40768910789032,-12.065989729869662],[-73.39788485788118,-12.020943479827729],[-73.43769435791835,-11.989631854798581],[-73.44113498292157,-11.944200104756256],[-73.49053160796767,-11.878170479694747],[-73.57750510804881,-11.836484729655934],[-73.57448123304597,-11.73414547956065],[-73.60826960807752,-11.660160104491741],[-73.55965098303216,-11.592050979428304],[-73.44972760792957,-11.531943104372335],[-73.47971623295757,-11.4713638543159],[-73.41974948290158,-11.383938229234493],[-73.331330607819,-11.311264729166817],[-73.25744573274996,-11.31270885416815],[-73.20330073269935,-11.289990354146976],[-73.13737448263765,-11.293773104150501],[-73.02650885753387,-11.26408460412282],[-72.98966460749936,-11.198796854062017],[-72.96858360747962,-11.264121229122859],[-72.939126107452,-11.282077854139564],[-72.95190860746398,-11.330629604184779],[-72.89701898241249,-11.357926104210184],[-72.7942939823161,-11.38429072923471],[-72.73823760726343,-11.347429354200365],[-72.70656135723364,-11.381505354232067],[-72.6099874821428,-11.428238354275534],[-72.53508560707222,-11.435080479281861],[-72.47986810702017,-11.387420604237432],[-72.37883010692482,-11.332638729186295],[-72.30770898185762,-11.30699997916233],[-72.23925835679285,-11.345060979197648],[-72.24789448180097,-11.385005854234858],[-72.29255073184324,-11.433273104279875],[-72.31550810686487,-11.595576854431048],[-72.42873873197183,-11.708971854536797],[-72.37076798191703,-11.784967354607481],[-72.39130173193642,-11.826346229646072],[-72.33215410688047,-11.855527479673144],[-72.34751423189499,-11.891267479706455],[-72.33746598188544,-11.968075229777968],[-72.28455073183537,-11.97643035478566],[-72.25930310681142,-12.006302729813424],[-72.26893285682053,-12.054375354858204],[-72.17373298173024,-12.059810354863076],[-72.09444660665494,-12.085190979886534],[-72.08755860664833,-12.142690354940031],[-72.10551185666529,-12.238059855028887],[-72.0338407315971,-12.265044855053835],[-71.97303123153908,-12.320543355105288],[-71.97601323154183,-12.398782855178156],[-72.06148935662321,-12.44044935521723],[-72.07113235663235,-12.511484230283388],[-72.03145885659451,-12.524772730295647],[-71.98139610654673,-12.580490480347352],[-71.95638098152273,-12.654872605416532],[-71.97859548154392,-12.68333135544308],[-71.88161523145116,-12.730439480486568],[-71.81059185638311,-12.744978480499768],[-71.74694135632194,-12.796107480547002],[-71.6949687312722,-12.738793105493366],[-71.6002984811813,-12.700058105456618],[-71.5521327311349,-12.709301980464847],[-71.45104748103692,-12.824969355571568],[-71.415243856002,-12.894258605635654],[-71.35493810594372,-12.88397873062541],[-71.30100973089115,-12.940695355677477],[-71.23875385583061,-12.971933605705631],[-71.17304248076678,-12.983334605715202],[-71.16818223076109,-13.09408860581813],[-71.1220117307149,-13.233529230947013],[-71.04094523063549,-13.268749855978124],[-70.97452123057197,-13.1682856058832],[-70.9213928555211,-13.110830980828462],[-70.84296098044575,-13.067048480785592],[-70.75841310536326,-13.108044230821049],[-70.65975610526861,-13.088459105799304],[-70.58754010519907,-13.103129980809948],[-70.54984673016175,-13.15286435585449],[-70.46424773008005,-13.159690605856639],[-70.38846685500734,-13.19238873088278],[-70.42040835503526,-13.258570105946022],[-70.39283623000719,-13.31416073099605],[-70.40007310501208,-13.371738606049892],[-70.44255010505196,-13.393359856072353],[-70.4526179800599,-13.447918356123512],[-70.53403173013632,-13.525270106199494],[-70.54172373014245,-13.57448898124557],[-70.6161908552143,-13.609062481281075],[-70.6539128552502,-13.655936106326184],[-70.71512885531024,-13.662253981334466],[-70.73474710532801,-13.739016731406489],[-70.69885823029128,-13.803167606464726],[-70.72136135531301,-13.829341856489908],[-70.76837498035982,-13.81433210647768],[-70.83127298042132,-13.85893173152123],[-70.83303910542179,-13.938099731594859],[-70.86181423044897,-14.02622760667767],[-70.7958828553825,-14.072119106718134],[-70.80892960539464,-14.124199356766972],[-70.86683010545178,-14.169080106810553],[-70.89934885548338,-14.229301981867522],[-70.88058085546399,-14.270881606905599],[-70.9129677304956,-14.327579981959264],[-70.96257723054488,-14.361845231992497],[-70.98582085556758,-14.406725607034842],[-70.96250273054372,-14.444817357069624],[-70.99672773057733,-14.505692232127126],[-71.00144973058127,-14.572214857189092],[-71.11367610569289,-14.666731982279648],[-71.05324048063132,-14.754330482359693],[-71.01309348059102,-14.739693857345056],[-70.97548335555275,-14.764133732366764],[-70.99383548057051,-14.829163857427698],[-70.98474035555985,-14.94606848253609],[-71.00405010557917,-14.971877232560614],[-70.9762308555484,-15.175641732749202],[-70.96250248053387,-15.215636857785967],[-70.98528060555672,-15.249029607817665],[-70.95229923052247,-15.289843107854589],[-71.0122773555832,-15.343752107906438],[-71.03897098060976,-15.405165732964244],[-71.07174685564274,-15.449273108006102],[-71.1743316057472,-15.424456607985453],[-71.15115360572422,-15.363941232928694],[-71.16539760573929,-15.288882232859228],[-71.2018356057764,-15.245445232819618],[-71.16032860573486,-15.207768232783705],[-71.18038935575547,-15.162620482742165],[-71.14357760571875,-15.120560607702265],[-71.20684048078279,-15.071888982658333],[-71.26022523083627,-15.076908107664018],[-71.31562810589134,-15.120224982705263],[-71.37268048094839,-15.079110107667935],[-71.43081660600647,-14.998084107593396],[-71.50704960608184,-14.97627548257407],[-71.48587035606062,-15.059104857650878],[-71.51171110608603,-15.079447732670113],[-71.57062723114409,-15.061207232653802],[-71.58760073116052,-15.125595107713895],[-71.63602448120798,-15.13913923272698],[-71.66795348123938,-15.091896107683313],[-71.80295560637094,-15.06744098266162],[-71.7674561063366,-15.010523982608396],[-71.74595998131583,-14.939869982542472],[-71.79762273136612,-14.895981732502001],[-71.85208898141893,-14.888090107495014],[-71.89004985645579,-14.790873482404747],[-71.92400360648855,-14.789796857403925],[-71.95863348152201,-14.72801585734659],[-71.9412154815053,-14.685324607306772],[-71.9879149815503,-14.632949857258227],[-72.04186248160205,-14.694371232315635],[-72.03425598159463,-14.811989732425122],[-72.04712673160691,-14.875062982483891],[-72.12869260668514,-14.83060173244281],[-72.14469910670047,-14.777712857393622],[-72.25228885680316,-14.803659482418112],[-72.31544485686328,-14.833863232446383],[-72.40647885694973,-14.827085482440271],[-72.47094735701083,-14.774774607391675],[-72.48612973202525,-14.712543482333754],[-72.47177123201166,-14.661398857286095]],[[-71.24459023082498,-14.48327223211164],[-71.16985985575033,-14.523697857147843],[-71.15651448073726,-14.50000010712552],[-71.24816660582887,-14.438878982070403],[-71.24459023082498,-14.48327223211164]]]}}]}